{"type":"FeatureCollection","features":[{"type":"Feature","geometry":{"type":"Polygon","coordinates":[[[95.5054,49.9073],[95.4973,49.8481],[95.4117,49.7179],[95.4264,49.6314],[95.4825,49.4954],[95.726,49.3587],[95.6628,49.2349],[95.5749,49.1619],[95.5368,49.0529],[95.5257,48.8876],[95.449,48.8218],[95.3283,48.8219],[95.1344,48.7082],[95.042,48.6883],[94.7269,48.6776],[94.7082,48.7182],[94.4973,48.7181],[94.3334,48.7396],[94.2068,48.7791],[94.097,48.7891],[93.9984,48.7347],[93.7579,48.6734],[93.685,48.6115],[93.6678,48.5296],[93.5134,48.4852],[93.4295,48.4243],[93.2731,48.4645],[93.1695,48.5938],[93.0564,48.6353],[92.9613,48.6262],[92.8657,48.5643],[92.7539,48.5624],[92.6502,48.5962],[92.4736,48.6202],[92.2329,48.6217],[92.1695,48.7547],[92.1104,48.7831],[91.9848,48.7854],[91.9472,48.8272],[91.9425,48.9688],[91.8211,48.9596],[91.6685,48.9169],[91.55,48.8082],[91.3383,48.6718],[91.3142,48.7928],[91.2295,48.9252],[91.0212,49.0394],[90.9066,49.2643],[90.8245,49.3064],[90.7475,49.2984],[90.6675,49.3389],[90.5887,49.4737],[90.5033,49.5843],[90.3657,49.6697],[90.2391,49.7213],[90.1803,49.7867],[90.1313,49.9177],[90.0836,49.9771],[90.022,50.0012],[90.0023,50.0542],[90.1652,50.1082],[90.2852,50.1109],[90.3889,50.1926],[90.5041,50.2351],[90.5807,50.2439],[90.6733,50.2143],[90.7308,50.2434],[90.7064,50.3129],[90.8196,50.3547],[90.911,50.3528],[90.903,50.4084],[91.0932,50.436],[91.16,50.4201],[91.2933,50.4696],[91.4094,50.4506],[91.4582,50.552],[91.5292,50.5834],[91.6491,50.5885],[91.6489,50.6424],[91.7784,50.7194],[91.8559,50.7354],[92.0717,50.6958],[92.2702,50.7294],[92.306,50.7616],[92.3581,50.8851],[92.4587,50.79],[92.5793,50.7906],[92.5883,50.7259],[92.7272,50.7165],[92.7877,50.8056],[93.0089,50.7932],[93.0203,50.7132],[92.9594,50.6619],[93.0103,50.6062],[93.1275,50.5846],[93.225,50.5898],[93.3975,50.6345],[93.5366,50.6006],[93.6364,50.6069],[93.7034,50.5862],[93.8562,50.6011],[94.2404,50.5878],[94.3415,50.5012],[94.3897,50.214],[94.5221,50.1726],[94.5427,50.1178],[94.6179,50.0352],[94.7607,50.0549],[94.9992,50.0443],[95.0165,49.9805],[95.0816,49.9629],[95.4259,49.9576],[95.5054,49.9073]]]},"properties":{"shapeISO":"MN-046","shapeName":"Uvs"}},{"type":"Feature","geometry":{"type":"Polygon","coordinates":[[[91.3383,48.6718],[91.55,48.8082],[91.6685,48.9169],[91.8211,48.9596],[91.9425,48.9688],[91.9472,48.8272],[91.9848,48.7854],[92.1104,48.7831],[92.1695,48.7547],[92.2329,48.6217],[92.4736,48.6202],[92.6502,48.5962],[92.7539,48.5624],[92.8657,48.5643],[92.9613,48.6262],[93.0564,48.6353],[93.1695,48.5938],[93.2731,48.4645],[93.4295,48.4243],[93.483,48.3653],[93.485,48.3009],[93.3979,48.1183],[93.1824,47.9656],[93.2683,47.8634],[93.3893,47.777],[93.6144,47.6516],[93.5396,47.5574],[93.6863,47.4876],[93.8128,47.3627],[94.0122,47.3038],[94.0559,47.2591],[94.1279,47.1008],[94.288,46.8787],[94.4125,46.8003],[94.2856,46.7468],[94.1694,46.7244],[93.9794,46.7184],[93.9185,46.6951],[93.7659,46.5507],[93.6599,46.6131],[93.5195,46.6361],[93.6355,46.4275],[93.6145,46.3545],[93.4735,46.1698],[93.4083,46.0407],[93.376,45.8878],[93.3193,45.8531],[93.1199,45.7661],[93.0821,45.6761],[93.1521,45.5187],[93.1553,45.2377],[93.2174,44.9969],[93.1735,45.0125],[92.9294,45.0157],[92.8816,45.0465],[92.7759,45.0498],[92.4905,45.0001],[92.3133,45.0268],[92.2349,45.0135],[92.0576,45.0828],[91.8008,45.0816],[91.6909,45.062],[91.4918,45.1043],[91.4302,45.1563],[91.3654,45.1117],[91.2417,45.1319],[91.1222,45.2141],[90.9952,45.2138],[90.9311,45.1922],[90.895,45.2503],[90.8116,45.325],[90.7699,45.4284],[90.6683,45.4864],[90.6685,45.552],[90.7128,45.7254],[90.8479,45.8873],[91.022,46.0223],[91.0118,46.1238],[90.9023,46.2976],[90.9748,46.3628],[91.008,46.4583],[91.0524,46.5111],[91.0144,46.5806],[91.0484,46.7198],[91.2475,46.6707],[91.2927,46.6459],[91.3585,46.5555],[91.4793,46.5533],[91.5691,46.6139],[91.7767,46.6167],[91.8725,46.6387],[91.9271,46.7027],[91.6355,46.8271],[91.4839,46.9141],[91.4422,47.0188],[91.4687,47.1305],[91.4484,47.2069],[91.3563,47.2594],[91.2373,47.3689],[91.2619,47.4957],[91.2411,47.5677],[91.1799,47.6297],[91.1708,47.7229],[91.0969,47.7527],[90.9849,47.9769],[90.8551,48.1195],[90.8207,48.273],[90.8342,48.4136],[90.7996,48.5623],[90.7396,48.6523],[90.9452,48.6303],[91.197,48.7137],[91.3383,48.6718]]]},"properties":{"shapeISO":"MN-043","shapeName":"Khovd"}},{"type":"Feature","geometry":{"type":"Polygon","coordinates":[[[93.4295,48.4243],[93.5134,48.4852],[93.6678,48.5296],[93.685,48.6115],[93.7579,48.6734],[93.9984,48.7347],[94.097,48.7891],[94.2068,48.7791],[94.3334,48.7396],[94.4973,48.7181],[94.7082,48.7182],[94.7269,48.6776],[95.042,48.6883],[95.1344,48.7082],[95.3283,48.8219],[95.449,48.8218],[95.5257,48.8876],[95.5368,49.0529],[95.5749,49.1619],[95.6628,49.2349],[95.726,49.3587],[95.4825,49.4954],[95.4264,49.6314],[95.4117,49.7179],[95.4973,49.8481],[95.5054,49.9073],[95.6661,49.9643],[95.7956,49.9641],[95.7653,50.0171],[95.8431,50.0436],[96.0175,50.0034],[96.2607,49.9766],[96.3366,49.9428],[96.4171,49.8769],[96.5119,49.9413],[96.6005,49.8773],[96.7092,49.9287],[96.7409,49.9076],[96.995,49.893],[97.0099,49.8335],[97.1197,49.8196],[97.1305,49.7911],[97.0777,49.6489],[96.8755,49.5087],[96.8775,49.3685],[97.1183,49.2257],[97.1757,49.1669],[97.3221,49.1817],[97.4897,49.1663],[97.7056,49.0994],[97.8597,49.0073],[98.068,48.9865],[98.2341,49.0173],[98.4236,49.0023],[98.5525,48.9345],[98.7425,49.0119],[98.7951,49.0962],[98.837,49.1099],[99.1139,49.1137],[99.1466,49.0632],[99.1599,48.9275],[99.2154,48.759],[99.102,48.6212],[99.0709,48.53],[99.098,48.412],[99.0742,48.2962],[98.959,48.2744],[98.7053,48.2027],[98.5764,48.1183],[98.5041,48.0989],[98.3327,48.1029],[98.2377,48.0668],[98.2013,47.9961],[98.2122,47.9213],[98.1785,47.8106],[98.1935,47.711],[98.2576,47.6572],[98.4167,47.6148],[98.385,47.5261],[98.2782,47.4444],[98.2784,47.3663],[98.2509,47.266],[98.1948,47.225],[98.0634,47.1738],[97.9704,47.1877],[97.874,47.1547],[97.8433,47.0585],[97.7459,46.9643],[97.7335,46.8506],[97.6939,46.7424],[97.5677,46.5975],[97.4883,46.6093],[97.3921,46.693],[97.2447,46.6043],[97.1689,46.5746],[96.9382,46.6003],[96.9179,46.6836],[96.7312,46.9004],[96.6777,46.9295],[96.592,46.9202],[96.3427,46.8267],[96.2809,46.9995],[96.2902,47.0901],[96.2675,47.1675],[96.1097,47.2967],[96.0259,47.3082],[95.9167,47.3774],[95.7523,47.4326],[95.5292,47.536],[95.2905,47.5649],[95.0727,47.5412],[95.0289,47.6257],[94.9729,47.6553],[94.7965,47.6746],[94.6575,47.6684],[94.5056,47.6796],[94.3204,47.7335],[94.2374,47.7776],[94.1707,47.7823],[93.6144,47.6516],[93.3893,47.777],[93.2683,47.8634],[93.1824,47.9656],[93.3979,48.1183],[93.485,48.3009],[93.483,48.3653],[93.4295,48.4243]]]},"properties":{"shapeISO":"MN-057","shapeName":"Zavkhan"}},{"type":"Feature","geometry":{"type":"Polygon","coordinates":[[[102.6428,50.4104],[102.7536,50.3869],[102.9419,50.3055],[103.1767,50.3325],[103.2764,50.2849],[103.2563,50.1929],[103.4248,50.2117],[103.5231,50.1957],[103.6085,50.1441],[103.8004,50.1517],[103.8466,50.1976],[103.9986,50.1503],[104.146,50.147],[104.2783,50.2012],[104.3633,50.2632],[104.5225,50.1499],[104.5569,50.0497],[104.6167,50.0093],[104.5159,49.9825],[104.5353,49.8553],[104.6855,49.7409],[104.7335,49.6861],[104.6727,49.6457],[104.6716,49.5415],[104.6417,49.433],[104.5949,49.3641],[104.5195,49.1056],[104.444,49.1283],[104.3424,49.12],[104.2835,49.0807],[104.1031,49.1213],[103.9738,49.0378],[103.9748,48.9815],[104.2416,48.9462],[104.3781,48.8992],[104.5438,48.7888],[104.5149,48.7326],[104.5282,48.6258],[104.534,48.4192],[104.4974,48.352],[104.4002,48.2984],[104.2884,48.1438],[104.3785,48.0624],[104.3934,47.9885],[104.4948,47.9556],[104.7039,47.9449],[104.6993,47.8173],[104.7605,47.6617],[104.5276,47.6535],[104.4867,47.5997],[104.3297,47.5947],[104.1562,47.5248],[104.0686,47.4684],[104.1629,47.3686],[104.1475,47.298],[103.9517,47.2647],[103.7856,47.2639],[103.6777,47.2506],[103.6605,47.3383],[103.4006,47.4949],[103.2074,47.6989],[103.0901,47.7228],[103.014,47.8432],[102.8899,47.8826],[102.8424,47.9296],[102.8075,48.0781],[102.7315,48.1725],[102.6322,48.2515],[102.4801,48.2661],[102.3691,48.3322],[102.3184,48.4334],[102.2383,48.4814],[102.1987,48.6767],[102.1312,48.8105],[102.0489,48.7771],[101.9605,48.7847],[101.8807,48.8592],[101.7578,48.8883],[101.6658,48.9628],[101.6346,49.0719],[101.6773,49.1929],[101.7257,49.2338],[101.8056,49.2507],[101.852,49.299],[101.9779,49.3731],[102.2808,49.4317],[102.4284,49.5082],[102.5007,49.6152],[102.5396,49.6405],[102.6693,49.6378],[102.7847,49.6915],[102.7205,49.7345],[102.5581,49.7897],[102.2751,49.8595],[102.1377,49.9047],[102.1043,49.9623],[102.2491,50.1099],[102.3595,50.1855],[102.4177,50.3005],[102.5001,50.3547],[102.6428,50.4104]]]},"properties":{"shapeISO":"MN-067","shapeName":"Bulgan"}},{"type":"Feature","geometry":{"type":"Polygon","coordinates":[[[107.6873,44.5541],[107.7662,44.6577],[107.8419,44.8669],[108.418,44.8848],[108.4401,45.0268],[108.4902,45.0783],[108.653,45.1075],[108.5347,45.354],[108.4673,45.59],[108.492,45.7519],[108.5593,45.9413],[108.6074,46.0106],[108.6216,46.0841],[108.6723,46.1829],[108.7588,46.2382],[108.9091,46.3829],[108.9589,46.4639],[109.1166,46.3741],[109.169,46.2702],[109.2511,46.2015],[109.3447,46.1682],[109.4962,46.1656],[109.6228,46.1418],[109.7893,46.2139],[109.915,46.3019],[110.0099,46.4573],[109.9864,46.5971],[110.027,46.624],[110.1218,46.6037],[110.2172,46.5109],[110.39,46.3728],[110.5166,46.2182],[110.5649,46.1041],[110.8682,46.0631],[110.9577,46.0598],[110.9766,46.0896],[111.1671,46.2316],[111.3663,46.173],[111.5755,46.0945],[111.6248,46.0543],[111.7073,45.8827],[111.7165,45.7299],[111.6853,45.5345],[111.7563,45.4921],[111.8095,45.4097],[111.8987,45.3295],[111.9255,45.2755],[111.9111,45.1963],[111.9535,45.0718],[111.7695,44.9806],[111.6049,44.7558],[111.5534,44.6454],[111.5611,44.5713],[111.4637,44.4714],[111.4093,44.3446],[111.522,44.2658],[111.5392,44.1918],[111.6046,44.1117],[111.6931,44.0354],[111.7882,43.996],[111.8739,43.9322],[111.959,43.8191],[111.9678,43.7439],[111.9462,43.69],[111.799,43.6696],[111.5729,43.4908],[111.4016,43.4764],[111.327,43.4252],[111.2131,43.3993],[111.0479,43.3419],[110.9806,43.301],[110.8014,43.1313],[110.6823,43.0351],[110.624,42.9328],[110.4641,42.8326],[110.4329,42.7772],[110.2936,42.7208],[110.1363,42.6721],[110.1008,42.6391],[109.9034,42.6306],[109.6688,42.5513],[109.5285,42.4675],[109.2839,42.4345],[109.0244,42.4542],[108.8474,42.3979],[108.716,42.4096],[108.539,42.4406],[108.3062,42.4359],[108.2408,42.4606],[108.0167,42.4313],[107.9796,42.4123],[107.9815,42.5877],[108.0049,42.7015],[108.0127,42.8511],[108.0309,42.9219],[108.0071,43.1675],[107.9477,43.2645],[107.9337,43.3557],[107.9547,43.6947],[107.8665,43.8817],[107.7996,44.0921],[107.655,44.3004],[107.6483,44.3599],[107.6873,44.5541]]]},"properties":{"shapeISO":"MN-063","shapeName":"Dornogovi"}},{"type":"Feature","geometry":{"type":"MultiPolygon","coordinates":[[[[106.3564,48.2572],[106.5913,48.2266],[106.9179,48.174],[107.0994,48.2189],[107.2596,48.0488],[107.3518,47.9776],[107.5287,47.9385],[107.5722,47.9136],[107.5108,47.6519],[107.4125,47.6369],[107.2766,47.6394],[107.1109,47.7182],[106.9306,47.7349],[106.6641,47.7109],[106.5221,47.7455],[106.4994,47.8651],[106.4306,47.967],[106.4224,48.0979],[106.3564,48.2572]]],[[[108.4694,47.9254],[108.4464,47.783],[108.4848,47.7524],[108.3989,47.6445],[108.404,47.5724],[108.2529,47.573],[108.1983,47.7378],[108.2452,47.869],[108.3472,47.9476],[108.4694,47.9254]]],[[[107.3645,47.3841],[107.5087,47.4179],[107.567,47.3221],[107.4298,47.2903],[107.3645,47.3841]]]]},"properties":{"shapeISO":"MN-1","shapeName":"Ulaanbaatar"}},{"type":"Feature","geometry":{"type":"Polygon","coordinates":[[[108.9589,46.4639],[108.9091,46.3829],[108.7588,46.2382],[108.6723,46.1829],[108.6216,46.0841],[108.6074,46.0106],[108.5593,45.9413],[108.4237,45.9345],[108.3106,45.9509],[108.2117,46],[108.1458,46.1046],[108.1128,46.1928],[108.207,46.3361],[108.1929,46.3978],[108.1222,46.4822],[108.1222,46.5438],[108.1976,46.6442],[108.0704,46.683],[107.9568,46.7745],[108.1153,46.8108],[108.2034,46.8115],[108.4799,46.7804],[108.7106,46.8606],[108.8205,46.9804],[108.9179,46.8622],[108.9864,46.8314],[109.0011,46.7808],[108.9707,46.691],[108.9734,46.4988],[108.9589,46.4639]]]},"properties":{"shapeISO":"MN-064","shapeName":"Govisumber"}},{"type":"Feature","geometry":{"type":"Polygon","coordinates":[[[111.9535,45.0718],[111.9111,45.1963],[111.9255,45.2755],[111.8987,45.3295],[111.8095,45.4097],[111.7563,45.4921],[111.6853,45.5345],[111.7165,45.7299],[111.7073,45.8827],[111.6248,46.0543],[111.5755,46.0945],[111.3663,46.173],[111.1671,46.2316],[111.2478,46.3769],[111.2614,46.4595],[111.2332,46.6107],[111.2619,46.6878],[111.3935,46.7919],[111.3797,46.8645],[111.4335,46.9941],[111.4675,47.1367],[111.5337,47.2349],[111.6775,47.3287],[111.793,47.3796],[112.0679,47.316],[112.0488,47.39],[112.0515,47.4909],[112.0759,47.5935],[112.1163,47.6445],[112.4089,47.7636],[112.5309,47.7891],[112.6941,47.7939],[112.7434,47.5748],[112.9486,47.6137],[113.1657,47.5638],[113.6755,47.5133],[113.8222,47.4641],[113.9707,47.3666],[114.0671,47.3259],[114.1701,47.2587],[114.4782,47.1306],[114.4231,46.9939],[114.4217,46.863],[114.4587,46.8075],[114.6573,46.7095],[114.9011,46.5015],[115.0985,46.5327],[115.2659,46.5485],[115.5867,46.5465],[115.7697,46.5887],[116.1573,46.5917],[116.2573,46.5821],[116.3157,46.5467],[116.5427,46.2367],[116.3903,46.108],[116.2646,45.9612],[116.2359,45.8822],[116.2833,45.84],[116.2806,45.7704],[116.2188,45.7448],[116.1816,45.6925],[115.9254,45.6266],[115.6874,45.4527],[115.372,45.388],[115.1718,45.3907],[114.9443,45.3749],[114.7448,45.435],[114.547,45.3825],[114.528,45.2927],[114.3847,45.1434],[114.177,45.0338],[114.1334,44.9667],[114.0562,44.9256],[113.9068,44.9147],[113.8769,44.8801],[113.7813,44.8418],[113.6256,44.7424],[113.5059,44.772],[113.1276,44.7954],[112.931,44.8395],[112.8433,44.8391],[112.702,44.8809],[112.585,44.9361],[112.5188,45.0126],[112.4255,45.0742],[112.3743,45.0616],[112.1114,45.0716],[112.0618,45.0959],[111.9535,45.0718]]]},"properties":{"shapeISO":"MN-051","shapeName":"Sükhbaatar"}},{"type":"Feature","geometry":{"type":"Polygon","coordinates":[[[93.2174,44.9969],[93.1553,45.2377],[93.1521,45.5187],[93.0821,45.6761],[93.1199,45.7661],[93.3193,45.8531],[93.376,45.8878],[93.4083,46.0407],[93.4735,46.1698],[93.6145,46.3545],[93.6355,46.4275],[93.5195,46.6361],[93.6599,46.6131],[93.7659,46.5507],[93.9185,46.6951],[93.9794,46.7184],[94.1694,46.7244],[94.2856,46.7468],[94.4125,46.8003],[94.288,46.8787],[94.1279,47.1008],[94.0559,47.2591],[94.0122,47.3038],[93.8128,47.3627],[93.6863,47.4876],[93.5396,47.5574],[93.6144,47.6516],[94.1707,47.7823],[94.2374,47.7776],[94.3204,47.7335],[94.5056,47.6796],[94.6575,47.6684],[94.7965,47.6746],[94.9729,47.6553],[95.0289,47.6257],[95.0727,47.5412],[95.2905,47.5649],[95.5292,47.536],[95.7523,47.4326],[95.9167,47.3774],[96.0259,47.3082],[96.1097,47.2967],[96.2675,47.1675],[96.2902,47.0901],[96.2809,46.9995],[96.3427,46.8267],[96.592,46.9202],[96.6777,46.9295],[96.7312,46.9004],[96.9179,46.6836],[96.9382,46.6003],[97.1689,46.5746],[97.2447,46.6043],[97.3921,46.693],[97.4883,46.6093],[97.5677,46.5975],[97.6539,46.5307],[97.6603,46.4384],[97.742,46.2826],[97.8701,46.218],[98.2061,45.9901],[98.2205,45.9317],[98.3423,45.8569],[98.4014,45.8028],[98.4653,45.5834],[98.46,45.3834],[98.3917,45.2001],[98.2125,44.9337],[98.1977,44.8599],[98.2145,44.6861],[98.19,44.5879],[98.1393,44.4913],[98.0556,44.4267],[97.9667,44.4059],[97.9299,44.3549],[97.9277,44.1215],[97.9553,43.9821],[97.9247,43.8511],[97.9091,43.5987],[97.8691,43.5327],[97.8551,43.4237],[97.7797,43.3303],[97.7535,43.2491],[97.7563,43.1595],[97.7908,43.015],[97.7893,42.7094],[97.1726,42.795],[96.9661,42.7538],[96.7495,42.7549],[96.3858,42.724],[96.3594,42.8995],[95.9132,43.2315],[95.8776,43.2763],[95.8575,43.4099],[95.7337,43.5974],[95.6492,43.7725],[95.6221,43.8514],[95.5226,44.0034],[95.323,44.027],[95.3521,44.1725],[95.4106,44.2463],[95.4077,44.2941],[94.9995,44.25],[94.9406,44.2894],[94.7173,44.3414],[94.6038,44.446],[94.4612,44.5101],[94.351,44.5131],[94.3397,44.5641],[94.2103,44.6678],[94.0609,44.7328],[93.7329,44.8612],[93.6755,44.9079],[93.5028,44.9675],[93.4299,44.9558],[93.3726,44.9857],[93.2174,44.9969]]]},"properties":{"shapeISO":"MN-065","shapeName":"Govi-Altai"}},{"type":"Feature","geometry":{"type":"Polygon","coordinates":[[[104.3781,48.8992],[104.2416,48.9462],[103.9748,48.9815],[103.9738,49.0378],[104.1031,49.1213],[104.2835,49.0807],[104.3424,49.12],[104.444,49.1283],[104.5195,49.1056],[104.5631,48.997],[104.3781,48.8992]]]},"properties":{"shapeISO":"MN-035","shapeName":"Orkhon"}},{"type":"Feature","geometry":{"type":"Polygon","coordinates":[[[98.4167,47.6148],[98.2576,47.6572],[98.1935,47.711],[98.1785,47.8106],[98.2122,47.9213],[98.2013,47.9961],[98.2377,48.0668],[98.3327,48.1029],[98.5041,48.0989],[98.5764,48.1183],[98.7053,48.2027],[98.959,48.2744],[99.0742,48.2962],[99.2236,48.2429],[99.3496,48.2403],[99.6744,48.2852],[99.7221,48.3065],[99.7836,48.421],[99.7873,48.4855],[99.9058,48.4612],[100.0651,48.3995],[100.1828,48.3933],[100.2158,48.4598],[100.2899,48.4908],[100.4763,48.5087],[100.3844,48.5945],[100.3594,48.6715],[100.4355,48.8252],[100.493,48.8714],[100.6404,48.9234],[100.5989,48.9594],[100.4763,48.9984],[100.6498,49.1071],[100.7027,49.2049],[100.8866,49.1305],[101.2925,49.009],[101.4475,48.9532],[101.6658,48.9628],[101.7578,48.8883],[101.8807,48.8592],[101.9605,48.7847],[102.0489,48.7771],[102.1312,48.8105],[102.1987,48.6767],[102.2383,48.4814],[102.3184,48.4334],[102.3691,48.3322],[102.4801,48.2661],[102.6322,48.2515],[102.7315,48.1725],[102.8075,48.0781],[102.8424,47.9296],[102.8899,47.8826],[103.014,47.8432],[103.0901,47.7228],[103.2074,47.6989],[103.4006,47.4949],[103.6605,47.3383],[103.6777,47.2506],[103.6434,47.2206],[103.5194,47.187],[103.3498,47.1864],[103.1789,47.2124],[103.0417,47.3098],[102.9644,47.3226],[102.8492,47.3691],[102.779,47.3755],[102.7141,47.4133],[102.6466,47.3831],[102.6626,47.3262],[102.7234,47.2782],[102.6721,47.1749],[102.5882,47.1286],[102.5451,47.0038],[102.4668,46.9289],[102.3206,47.0172],[102.1459,47.0101],[101.9299,46.9621],[101.8478,46.8851],[101.7757,46.862],[101.3825,46.8431],[101.2885,46.8261],[101.1783,46.8497],[101.0801,46.8266],[100.6953,46.8368],[100.5903,46.9397],[100.4621,46.9773],[100.4212,47.0772],[100.448,47.1831],[100.0878,47.112],[99.942,47.0579],[99.9199,47.1386],[99.8959,47.346],[99.8688,47.4046],[99.7698,47.4922],[99.7594,47.619],[99.4845,47.5783],[99.4112,47.5554],[99.3442,47.4909],[99.214,47.4535],[99.054,47.4546],[98.9731,47.4715],[98.8555,47.5423],[98.8166,47.5899],[98.7925,47.7217],[98.5813,47.6996],[98.4841,47.6659],[98.4167,47.6148]]]},"properties":{"shapeISO":"MN-073","shapeName":"Arkhangai"}},{"type":"Feature","geometry":{"type":"Polygon","coordinates":[[[97.5677,46.5975],[97.6939,46.7424],[97.7335,46.8506],[97.7459,46.9643],[97.8433,47.0585],[97.874,47.1547],[97.9704,47.1877],[98.0634,47.1738],[98.1948,47.225],[98.2509,47.266],[98.2784,47.3663],[98.2782,47.4444],[98.385,47.5261],[98.4167,47.6148],[98.4841,47.6659],[98.5813,47.6996],[98.7925,47.7217],[98.8166,47.5899],[98.8555,47.5423],[98.9731,47.4715],[99.054,47.4546],[99.214,47.4535],[99.3442,47.4909],[99.4112,47.5554],[99.4845,47.5783],[99.7594,47.619],[99.7698,47.4922],[99.8688,47.4046],[99.8959,47.346],[99.9199,47.1386],[99.942,47.0579],[100.0878,47.112],[100.448,47.1831],[100.4212,47.0772],[100.4621,46.9773],[100.5903,46.9397],[100.6953,46.8368],[101.0801,46.8266],[101.1783,46.8497],[101.2885,46.8261],[101.41,46.6702],[101.4969,46.5801],[101.4806,46.5391],[101.524,46.4705],[101.4973,46.3814],[101.4921,46.1897],[101.4531,46.1397],[101.3413,46.0835],[101.2961,46.0389],[101.2878,45.9213],[101.3238,45.7665],[101.2984,45.6892],[101.2438,45.6246],[101.243,45.5573],[101.1505,45.4608],[101.1391,45.3933],[101.1363,45.1475],[101.1456,45.0884],[101.2168,44.995],[101.4031,44.9411],[101.5572,44.8656],[101.596,44.8164],[101.5553,44.7761],[101.547,44.6363],[101.604,44.5716],[101.7024,44.3428],[101.7719,44.1078],[101.8079,44.0489],[101.7469,43.9951],[101.6613,43.9789],[101.4766,43.9187],[101.3305,43.8576],[101.1309,43.8339],[100.6141,43.8345],[100.3905,43.8131],[100.2467,43.8437],[100.0065,44.0421],[99.8139,44.1345],[99.7371,44.1501],[99.5047,44.1183],[99.4356,44.0885],[99.417,44.0342],[99.4505,43.8473],[99.4483,43.5713],[99.4697,43.3599],[99.5274,43.0399],[99.5752,42.869],[99.5957,42.7379],[99.5969,42.5793],[99.5035,42.5661],[99.0587,42.5979],[98.5315,42.6376],[98.1923,42.652],[97.7893,42.7094],[97.7908,43.015],[97.7563,43.1595],[97.7535,43.2491],[97.7797,43.3303],[97.8551,43.4237],[97.8691,43.5327],[97.9091,43.5987],[97.9247,43.8511],[97.9553,43.9821],[97.9277,44.1215],[97.9299,44.3549],[97.9667,44.4059],[98.0556,44.4267],[98.1393,44.4913],[98.19,44.5879],[98.2145,44.6861],[98.1977,44.8599],[98.2125,44.9337],[98.3917,45.2001],[98.46,45.3834],[98.4653,45.5834],[98.4014,45.8028],[98.3423,45.8569],[98.2205,45.9317],[98.2061,45.9901],[97.8701,46.218],[97.742,46.2826],[97.6603,46.4384],[97.6539,46.5307],[97.5677,46.5975]]]},"properties":{"shapeISO":"MN-069","shapeName":"Bayankhongor"}},{"type":"Feature","geometry":{"type":"Polygon","coordinates":[[[108.5593,45.9413],[108.492,45.7519],[108.4673,45.59],[108.5347,45.354],[108.653,45.1075],[108.4902,45.0783],[108.4401,45.0268],[108.418,44.8848],[107.8419,44.8669],[107.7662,44.6577],[107.6873,44.5541],[107.4456,44.4903],[107.3137,44.5156],[106.7936,44.4307],[106.58,44.3499],[106.5048,44.308],[106.3776,44.2699],[106.2932,44.2172],[106.1321,44.1816],[106.0056,44.1809],[105.9327,44.2061],[105.7682,44.3092],[105.7092,44.4205],[105.5688,44.5654],[105.5064,44.6772],[105.3748,44.6906],[105.1254,44.6865],[105.0116,44.6695],[104.8606,44.6783],[104.7155,44.7156],[104.4128,44.7641],[104.2808,44.8206],[104.2372,44.8775],[104.1674,45.0941],[104.1082,45.2022],[104.007,45.1806],[103.7826,45.1692],[103.7945,45.3446],[103.7333,45.3767],[103.6417,45.4711],[103.6188,45.6164],[103.6421,45.6622],[103.7405,45.7289],[103.8073,45.7504],[104.0564,45.7463],[104.1365,45.8],[104.1935,45.9679],[104.2612,46.04],[104.3089,46.125],[104.4912,46.1208],[104.5673,46.1549],[104.6245,46.255],[104.6533,46.3805],[104.8787,46.5122],[104.9668,46.5905],[105.226,46.5261],[105.3967,46.4389],[105.476,46.5403],[105.66,46.7097],[105.7654,46.7323],[105.8554,46.7188],[105.9167,46.6768],[106.1051,46.6233],[106.1639,46.5746],[106.6994,46.5725],[106.8968,46.5269],[107.1016,46.4036],[107.341,46.4138],[107.5176,46.4548],[107.6021,46.5265],[107.7621,46.5613],[107.8316,46.6062],[107.856,46.7611],[107.9568,46.7745],[108.0704,46.683],[108.1976,46.6442],[108.1222,46.5438],[108.1222,46.4822],[108.1929,46.3978],[108.207,46.3361],[108.1128,46.1928],[108.1458,46.1046],[108.2117,46],[108.3106,45.9509],[108.4237,45.9345],[108.5593,45.9413]]]},"properties":{"shapeISO":"MN-059","shapeName":"Dundgovi"}},{"type":"Feature","geometry":{"type":"Polygon","coordinates":[[[107.6873,44.5541],[107.6483,44.3599],[107.655,44.3004],[107.7996,44.0921],[107.8665,43.8817],[107.9547,43.6947],[107.9337,43.3557],[107.9477,43.2645],[108.0071,43.1675],[108.0309,42.9219],[108.0127,42.8511],[108.0049,42.7015],[107.9815,42.5877],[107.9796,42.4123],[107.9188,42.4023],[107.5659,42.4116],[107.4532,42.4567],[107.2928,42.4081],[107.257,42.3628],[107.0411,42.3143],[106.786,42.2914],[106.5071,42.194],[105.6969,41.9309],[105.6138,41.8983],[105.2838,41.7448],[105.2287,41.747],[105.0112,41.5804],[104.9158,41.6523],[104.6777,41.6427],[104.5183,41.6622],[104.5249,41.8734],[104.0531,41.802],[103.8438,41.8006],[103.3857,41.888],[102.9897,42.0309],[102.7068,42.1488],[102.538,42.1584],[102.4424,42.1419],[102.0745,42.2226],[101.7956,42.4992],[101.5922,42.5206],[100.8451,42.6715],[100.3185,42.6869],[100.2678,42.6353],[99.9712,42.6438],[99.5969,42.5793],[99.5957,42.7379],[99.5752,42.869],[99.5274,43.0399],[99.4697,43.3599],[99.4483,43.5713],[99.4505,43.8473],[99.417,44.0342],[99.4356,44.0885],[99.5047,44.1183],[99.7371,44.1501],[99.8139,44.1345],[100.0065,44.0421],[100.2467,43.8437],[100.3905,43.8131],[100.6141,43.8345],[101.1309,43.8339],[101.3305,43.8576],[101.4766,43.9187],[101.6613,43.9789],[101.7469,43.9951],[101.8079,44.0489],[102.053,44.1108],[102.3705,44.1526],[102.9982,44.1575],[102.9324,44.29],[102.9676,44.3681],[103.0523,44.4671],[103.1055,44.5893],[103.2159,44.7361],[103.2454,44.8011],[103.3262,44.8279],[103.3683,44.8919],[103.5456,44.9546],[103.708,45.0701],[103.7826,45.1692],[104.007,45.1806],[104.1082,45.2022],[104.1674,45.0941],[104.2372,44.8775],[104.2808,44.8206],[104.4128,44.7641],[104.7155,44.7156],[104.8606,44.6783],[105.0116,44.6695],[105.1254,44.6865],[105.3748,44.6906],[105.5064,44.6772],[105.5688,44.5654],[105.7092,44.4205],[105.7682,44.3092],[105.9327,44.2061],[106.0056,44.1809],[106.1321,44.1816],[106.2932,44.2172],[106.3776,44.2699],[106.5048,44.308],[106.58,44.3499],[106.7936,44.4307],[107.3137,44.5156],[107.4456,44.4903],[107.6873,44.5541]]]},"properties":{"shapeISO":"MN-053","shapeName":"Ömnögovi"}},{"type":"Feature","geometry":{"type":"Polygon","coordinates":[[[103.6777,47.2506],[103.7856,47.2639],[103.9517,47.2647],[104.1475,47.298],[104.1629,47.1793],[104.1899,47.1364],[104.3286,47.0408],[104.3538,46.998],[104.3465,46.906],[104.2344,46.8525],[104.3238,46.7708],[104.3923,46.6567],[104.3939,46.5603],[104.4312,46.5103],[104.5608,46.4485],[104.6533,46.3805],[104.6245,46.255],[104.5673,46.1549],[104.4912,46.1208],[104.3089,46.125],[104.2612,46.04],[104.1935,45.9679],[104.1365,45.8],[104.0564,45.7463],[103.8073,45.7504],[103.7405,45.7289],[103.6421,45.6622],[103.6188,45.6164],[103.6417,45.4711],[103.7333,45.3767],[103.7945,45.3446],[103.7826,45.1692],[103.708,45.0701],[103.5456,44.9546],[103.3683,44.8919],[103.3262,44.8279],[103.2454,44.8011],[103.2159,44.7361],[103.1055,44.5893],[103.0523,44.4671],[102.9676,44.3681],[102.9324,44.29],[102.9982,44.1575],[102.3705,44.1526],[102.053,44.1108],[101.8079,44.0489],[101.7719,44.1078],[101.7024,44.3428],[101.604,44.5716],[101.547,44.6363],[101.5553,44.7761],[101.596,44.8164],[101.5572,44.8656],[101.4031,44.9411],[101.2168,44.995],[101.1456,45.0884],[101.1363,45.1475],[101.1391,45.3933],[101.1505,45.4608],[101.243,45.5573],[101.2438,45.6246],[101.2984,45.6892],[101.3238,45.7665],[101.2878,45.9213],[101.2961,46.0389],[101.3413,46.0835],[101.4531,46.1397],[101.4921,46.1897],[101.4973,46.3814],[101.524,46.4705],[101.4806,46.5391],[101.4969,46.5801],[101.41,46.6702],[101.2885,46.8261],[101.3825,46.8431],[101.7757,46.862],[101.8478,46.8851],[101.9299,46.9621],[102.1459,47.0101],[102.3206,47.0172],[102.4668,46.9289],[102.5451,47.0038],[102.5882,47.1286],[102.6721,47.1749],[102.7234,47.2782],[102.6626,47.3262],[102.6466,47.3831],[102.7141,47.4133],[102.779,47.3755],[102.8492,47.3691],[102.9644,47.3226],[103.0417,47.3098],[103.1789,47.2124],[103.3498,47.1864],[103.5194,47.187],[103.6434,47.2206],[103.6777,47.2506]]]},"properties":{"shapeISO":"MN-055","shapeName":"Övörkhangai"}},{"type":"Feature","geometry":{"type":"Polygon","coordinates":[[[104.1475,47.298],[104.1629,47.3686],[104.0686,47.4684],[104.1562,47.5248],[104.3297,47.5947],[104.4867,47.5997],[104.5276,47.6535],[104.7605,47.6617],[104.6993,47.8173],[104.7039,47.9449],[104.4948,47.9556],[104.3934,47.9885],[104.3785,48.0624],[104.2884,48.1438],[104.4002,48.2984],[104.4974,48.352],[104.534,48.4192],[104.5282,48.6258],[104.7755,48.5583],[105.014,48.5053],[105.2496,48.5585],[105.4948,48.6445],[105.4448,48.7566],[105.5602,48.8125],[105.8345,48.8652],[105.9652,48.8441],[106.0263,48.7648],[105.9886,48.6884],[106.0686,48.6479],[106.1715,48.6872],[106.4489,48.5898],[106.5724,48.5305],[106.6966,48.517],[106.7607,48.533],[106.8744,48.6],[107.0764,48.6154],[107.1945,48.6023],[107.2532,48.5581],[107.6572,48.6534],[107.7321,48.7952],[107.7196,48.8493],[107.6281,48.8826],[107.5317,48.9759],[107.6751,49.0554],[107.7947,49.0763],[107.9085,49.0743],[108.0885,49.0087],[108.1661,49.0597],[108.3357,49.1143],[108.5215,49.1239],[108.7381,48.9739],[108.8549,48.8165],[108.9176,48.6693],[108.9517,48.5525],[109.0361,48.3467],[109.0339,48.2963],[108.9478,48.1972],[108.8746,48.0714],[108.6843,47.965],[108.552,47.9223],[108.4694,47.9254],[108.3472,47.9476],[108.2452,47.869],[108.1983,47.7378],[108.2529,47.573],[108.404,47.5724],[108.3856,47.5026],[108.507,47.3527],[108.597,47.2176],[108.6614,47.0863],[108.7299,47.0256],[108.8205,46.9804],[108.7106,46.8606],[108.4799,46.7804],[108.2034,46.8115],[108.1153,46.8108],[107.9568,46.7745],[107.856,46.7611],[107.8316,46.6062],[107.7621,46.5613],[107.6021,46.5265],[107.5176,46.4548],[107.341,46.4138],[107.1016,46.4036],[106.8968,46.5269],[106.6994,46.5725],[106.1639,46.5746],[106.1051,46.6233],[105.9167,46.6768],[105.8554,46.7188],[105.7654,46.7323],[105.66,46.7097],[105.476,46.5403],[105.3967,46.4389],[105.226,46.5261],[104.9668,46.5905],[104.8787,46.5122],[104.6533,46.3805],[104.5608,46.4485],[104.4312,46.5103],[104.3939,46.5603],[104.3923,46.6567],[104.3238,46.7708],[104.2344,46.8525],[104.3465,46.906],[104.3538,46.998],[104.3286,47.0408],[104.1899,47.1364],[104.1629,47.1793],[104.1475,47.298]],[[106.3564,48.2572],[106.4224,48.0979],[106.4306,47.967],[106.4994,47.8651],[106.5221,47.7455],[106.6641,47.7109],[106.9306,47.7349],[107.1109,47.7182],[107.2766,47.6394],[107.4125,47.6369],[107.5108,47.6519],[107.5722,47.9136],[107.5287,47.9385],[107.3518,47.9776],[107.2596,48.0488],[107.0994,48.2189],[106.9179,48.174],[106.5913,48.2266],[106.3564,48.2572]],[[107.3645,47.3841],[107.4298,47.2903],[107.567,47.3221],[107.5087,47.4179],[107.3645,47.3841]]]},"properties":{"shapeISO":"MN-047","shapeName":"Töv"}},{"type":"Feature","geometry":{"type":"Polygon","coordinates":[[[116.5427,46.2367],[116.3157,46.5467],[116.2573,46.5821],[116.1573,46.5917],[115.7697,46.5887],[115.5867,46.5465],[115.2659,46.5485],[115.0985,46.5327],[114.9011,46.5015],[114.6573,46.7095],[114.4587,46.8075],[114.4217,46.863],[114.4231,46.9939],[114.4782,47.1306],[114.1701,47.2587],[114.0671,47.3259],[113.9707,47.3666],[113.8222,47.4641],[113.6755,47.5133],[113.1657,47.5638],[112.9486,47.6137],[112.7434,47.5748],[112.6941,47.7939],[112.5588,48.0305],[112.5116,48.2463],[112.5376,48.4233],[112.5119,48.484],[112.2936,48.7498],[112.2371,48.8575],[112.2927,48.9819],[112.1981,49.1273],[112.1869,49.2229],[112.1493,49.3241],[111.9961,49.3919],[112.1946,49.4466],[112.2783,49.4844],[112.4865,49.5241],[112.6889,49.5041],[112.8066,49.5151],[112.9068,49.5685],[113.0439,49.6082],[113.2184,49.8371],[113.4739,49.9354],[113.4888,49.9736],[113.6519,49.9997],[113.7427,50.0749],[113.8787,50.1049],[114.1784,50.243],[114.3388,50.2827],[114.4677,50.2335],[114.6171,50.2456],[114.8312,50.2237],[115.0075,50.1639],[115.0677,50.0939],[115.2239,49.9884],[115.3608,49.9402],[115.5067,49.9071],[115.7454,49.8872],[115.9829,49.9707],[116.0727,50.0137],[116.233,50.0359],[116.3436,49.9958],[116.6216,49.9311],[116.7113,49.8418],[116.6088,49.7071],[116.3257,49.2891],[116.0363,48.8674],[116.0714,48.8194],[115.787,48.5199],[115.8134,48.2589],[115.5477,48.1614],[115.5214,48.1112],[115.5455,48.0669],[115.5705,47.9191],[115.9353,47.6812],[116.1115,47.8192],[116.2534,47.8783],[116.4394,47.8379],[116.6764,47.8892],[116.8708,47.8909],[117.0869,47.8203],[117.3752,47.64],[117.4822,47.7588],[117.805,48.0142],[118.0347,48.0124],[118.1699,48.0482],[118.2904,48.0032],[118.4068,48.0093],[118.5549,47.9935],[118.7548,47.7721],[119.1217,47.664],[119.1428,47.5424],[119.3576,47.4796],[119.3296,47.4521],[119.3723,47.3984],[119.5512,47.2987],[119.5607,47.2465],[119.6233,47.2441],[119.7081,47.1934],[119.799,47.0592],[119.7834,47.0245],[119.8543,46.9201],[119.9213,46.9016],[119.9288,46.7195],[119.8969,46.6657],[119.8067,46.6673],[119.7635,46.6181],[119.68,46.5896],[119.637,46.625],[119.4305,46.6386],[119.3836,46.6083],[119.3006,46.6087],[119.2449,46.6429],[119.1008,46.6475],[118.9999,46.7511],[118.8425,46.7707],[118.7896,46.6857],[118.437,46.7067],[118.3009,46.7383],[118.2114,46.6924],[118.1156,46.6787],[118.0306,46.6268],[117.9248,46.6132],[117.8305,46.5292],[117.6966,46.5142],[117.6147,46.5952],[117.5017,46.5965],[117.4137,46.5787],[117.439,46.5256],[117.391,46.4776],[117.3683,46.3607],[117.0856,46.354],[116.8311,46.3822],[116.7598,46.3288],[116.6584,46.3211],[116.5777,46.2898],[116.5427,46.2367]]]},"properties":{"shapeISO":"MN-061","shapeName":"Dornod"}},{"type":"Feature","geometry":{"type":"Polygon","coordinates":[[[104.5195,49.1056],[104.5949,49.3641],[104.6417,49.433],[104.6716,49.5415],[104.6727,49.6457],[104.7335,49.6861],[104.6855,49.7409],[104.5353,49.8553],[104.5159,49.9825],[104.6167,50.0093],[104.5569,50.0497],[104.5225,50.1499],[104.3633,50.2632],[104.3919,50.3116],[104.5568,50.3069],[104.6502,50.3241],[104.6992,50.3672],[104.8117,50.341],[104.8898,50.4078],[105.0081,50.3869],[105.1981,50.4115],[105.2984,50.4721],[105.4266,50.4442],[105.5251,50.458],[105.6089,50.4288],[105.8442,50.4404],[105.8991,50.4126],[105.9888,50.416],[106.0747,50.3896],[106.0808,50.3354],[106.183,50.3397],[106.2612,50.2981],[106.5102,50.3413],[106.5916,50.3385],[106.8157,50.2982],[106.9795,50.2089],[107,50.1572],[107.0994,50.05],[107.213,49.9989],[107.3489,49.9997],[107.383,49.9776],[107.7586,49.9677],[107.7942,49.9332],[107.9442,49.9433],[107.9192,49.8754],[107.9677,49.735],[107.9683,49.6548],[108.1243,49.5771],[108.3038,49.5319],[108.3564,49.4279],[108.5175,49.3227],[108.5714,49.3311],[108.5357,49.2261],[108.5215,49.1239],[108.3357,49.1143],[108.1661,49.0597],[108.0885,49.0087],[107.9085,49.0743],[107.7947,49.0763],[107.6751,49.0554],[107.5317,48.9759],[107.6281,48.8826],[107.7196,48.8493],[107.7321,48.7952],[107.6572,48.6534],[107.2532,48.5581],[107.1945,48.6023],[107.0764,48.6154],[106.8744,48.6],[106.7607,48.533],[106.6966,48.517],[106.5724,48.5305],[106.4489,48.5898],[106.1715,48.6872],[106.0686,48.6479],[105.9886,48.6884],[106.0263,48.7648],[105.9652,48.8441],[105.8345,48.8652],[105.5602,48.8125],[105.4448,48.7566],[105.4948,48.6445],[105.2496,48.5585],[105.014,48.5053],[104.7755,48.5583],[104.5282,48.6258],[104.5149,48.7326],[104.5438,48.7888],[104.3781,48.8992],[104.5631,48.997],[104.5195,49.1056]],[[105.8084,49.1313],[105.9086,49.1078],[106.0649,49.0966],[106.2195,49.1668],[106.3569,49.1861],[106.471,49.1201],[106.6014,49.0873],[106.7989,49.1317],[106.7809,49.2643],[106.7997,49.4705],[106.7229,49.5455],[106.5067,49.6059],[106.4101,49.5302],[106.2832,49.5387],[106.0403,49.6172],[106.1247,49.7153],[106.221,49.8923],[106.1056,49.9281],[106.0359,49.7902],[105.8399,49.6847],[105.8389,49.6039],[105.8925,49.5049],[105.8927,49.4263],[105.8478,49.229],[105.8084,49.1313]]]},"properties":{"shapeISO":"MN-049","shapeName":"Selenge"}},{"type":"Feature","geometry":{"type":"Polygon","coordinates":[[[99.0742,48.2962],[99.098,48.412],[99.0709,48.53],[99.102,48.6212],[99.2154,48.759],[99.1599,48.9275],[99.1466,49.0632],[99.1139,49.1137],[98.837,49.1099],[98.7951,49.0962],[98.7425,49.0119],[98.5525,48.9345],[98.4236,49.0023],[98.2341,49.0173],[98.068,48.9865],[97.8597,49.0073],[97.7056,49.0994],[97.4897,49.1663],[97.3221,49.1817],[97.1757,49.1669],[97.1183,49.2257],[96.8775,49.3685],[96.8755,49.5087],[97.0777,49.6489],[97.1305,49.7911],[97.2311,49.7429],[97.4216,49.7807],[97.5806,49.8584],[97.5548,49.9226],[97.7804,49.9936],[97.8296,49.923],[97.8978,49.984],[98.0699,50.0359],[98.11,50.1313],[98.1823,50.1581],[98.1698,50.2027],[98.2283,50.2361],[98.2521,50.2933],[98.3081,50.3233],[98.2694,50.3962],[98.3277,50.4748],[98.2728,50.5389],[98.0966,50.5974],[98.008,50.6692],[97.9786,50.7841],[97.9987,50.8757],[97.858,50.9596],[97.8343,51.0276],[97.9011,51.1174],[97.962,51.2758],[97.9535,51.3342],[98.0501,51.4502],[98.126,51.4713],[98.2241,51.4567],[98.2341,51.5476],[98.3271,51.6919],[98.3785,51.7398],[98.4523,51.7366],[98.5214,51.7784],[98.7643,51.8699],[98.809,51.9581],[98.8065,52.0255],[98.8615,52.1361],[98.9692,52.1426],[98.9974,52.0865],[99.1149,52.0322],[99.2761,52.0186],[99.3055,51.9575],[99.5188,51.968],[99.6257,51.8927],[99.8012,51.9154],[99.8478,51.8349],[99.8302,51.806],[99.9093,51.7457],[100.0654,51.7335],[100.1198,51.7574],[100.4439,51.727],[100.6562,51.7268],[100.7345,51.6797],[100.9298,51.6068],[100.9902,51.6128],[101.1325,51.5242],[101.2429,51.5475],[101.3701,51.4558],[101.5422,51.4995],[101.6205,51.4433],[101.7491,51.4553],[101.8179,51.421],[101.9519,51.4137],[102.1243,51.3616],[102.1701,51.3152],[102.1198,51.2887],[102.1233,51.1391],[102.2036,51.0395],[102.2411,50.9175],[102.212,50.8758],[102.2391,50.7985],[102.3403,50.7325],[102.3023,50.6819],[102.5254,50.5946],[102.541,50.5316],[102.6106,50.5064],[102.6428,50.4104],[102.5001,50.3547],[102.4177,50.3005],[102.3595,50.1855],[102.2491,50.1099],[102.1043,49.9623],[102.1377,49.9047],[102.2751,49.8595],[102.5581,49.7897],[102.7205,49.7345],[102.7847,49.6915],[102.6693,49.6378],[102.5396,49.6405],[102.5007,49.6152],[102.4284,49.5082],[102.2808,49.4317],[101.9779,49.3731],[101.852,49.299],[101.8056,49.2507],[101.7257,49.2338],[101.6773,49.1929],[101.6346,49.0719],[101.6658,48.9628],[101.4475,48.9532],[101.2925,49.009],[100.8866,49.1305],[100.7027,49.2049],[100.6498,49.1071],[100.4763,48.9984],[100.5989,48.9594],[100.6404,48.9234],[100.493,48.8714],[100.4355,48.8252],[100.3594,48.6715],[100.3844,48.5945],[100.4763,48.5087],[100.2899,48.4908],[100.2158,48.4598],[100.1828,48.3933],[100.0651,48.3995],[99.9058,48.4612],[99.7873,48.4855],[99.7836,48.421],[99.7221,48.3065],[99.6744,48.2852],[99.3496,48.2403],[99.2236,48.2429],[99.0742,48.2962]]]},"properties":{"shapeISO":"MN-041","shapeName":"Hovsgel"}},{"type":"Feature","geometry":{"type":"Polygon","coordinates":[[[90.022,50.0012],[90.0836,49.9771],[90.1313,49.9177],[90.1803,49.7867],[90.2391,49.7213],[90.3657,49.6697],[90.5033,49.5843],[90.5887,49.4737],[90.6675,49.3389],[90.7475,49.2984],[90.8245,49.3064],[90.9066,49.2643],[91.0212,49.0394],[91.2295,48.9252],[91.3142,48.7928],[91.3383,48.6718],[91.197,48.7137],[90.9452,48.6303],[90.7396,48.6523],[90.7996,48.5623],[90.8342,48.4136],[90.8207,48.273],[90.8551,48.1195],[90.9849,47.9769],[91.0969,47.7527],[91.1708,47.7229],[91.1799,47.6297],[91.2411,47.5677],[91.2619,47.4957],[91.2373,47.3689],[91.3563,47.2594],[91.4484,47.2069],[91.4687,47.1305],[91.4422,47.0188],[91.4839,46.9141],[91.6355,46.8271],[91.9271,46.7027],[91.8725,46.6387],[91.7767,46.6167],[91.5691,46.6139],[91.4793,46.5533],[91.3585,46.5555],[91.2927,46.6459],[91.2475,46.6707],[91.0484,46.7198],[90.9364,46.8202],[90.9538,46.8592],[90.9038,46.9537],[90.8187,46.9937],[90.7658,46.9879],[90.5941,47.1662],[90.5122,47.3],[90.5201,47.3758],[90.4582,47.407],[90.4729,47.4891],[90.3996,47.5376],[90.3704,47.6549],[90.2941,47.6933],[90.1384,47.7219],[90.0838,47.7619],[90.0649,47.8761],[89.9593,47.8868],[89.9539,47.8347],[89.7565,47.8292],[89.7271,47.895],[89.6551,47.9039],[89.5855,47.9899],[89.5788,48.0329],[89.4432,48.0311],[89.2935,48.0091],[89.2363,47.9753],[89.062,47.9873],[89.0054,48.051],[88.9028,48.1081],[88.8238,48.0995],[88.7129,48.1732],[88.6666,48.1672],[88.5874,48.2252],[88.5665,48.2748],[88.6042,48.3266],[88.5709,48.3631],[88.4357,48.3878],[88.3557,48.4605],[88.1403,48.5293],[88.0507,48.5412],[87.9555,48.5934],[88.0697,48.6818],[88.0223,48.7506],[87.9329,48.7537],[87.8205,48.8036],[87.7622,48.9219],[87.8739,48.9715],[87.8391,49.0368],[87.853,49.1198],[87.8117,49.1541],[87.9884,49.183],[88.018,49.2263],[88.1691,49.2925],[88.1605,49.3628],[88.1188,49.3908],[88.2218,49.4797],[88.2977,49.4709],[88.4112,49.4936],[88.4949,49.4719],[88.5909,49.5012],[88.7328,49.4515],[88.8801,49.4781],[88.9326,49.5168],[88.9845,49.4637],[89.2009,49.5228],[89.1888,49.6325],[89.241,49.6452],[89.36,49.5844],[89.4561,49.6623],[89.6608,49.6999],[89.7192,49.7283],[89.7119,49.7901],[89.6117,49.8635],[89.6293,49.9188],[89.7336,49.9479],[89.8828,49.953],[90.022,50.0012]]]},"properties":{"shapeISO":"MN-071","shapeName":"Bayan-Ölgii"}},{"type":"Feature","geometry":{"type":"Polygon","coordinates":[[[105.8084,49.1313],[105.8478,49.229],[105.8927,49.4263],[105.8925,49.5049],[105.8389,49.6039],[105.8399,49.6847],[106.0359,49.7902],[106.1056,49.9281],[106.221,49.8923],[106.1247,49.7153],[106.0403,49.6172],[106.2832,49.5387],[106.4101,49.5302],[106.5067,49.6059],[106.7229,49.5455],[106.7997,49.4705],[106.7809,49.2643],[106.7989,49.1317],[106.6014,49.0873],[106.471,49.1201],[106.3569,49.1861],[106.2195,49.1668],[106.0649,49.0966],[105.9086,49.1078],[105.8084,49.1313]]]},"properties":{"shapeISO":"MN-037","shapeName":"Darkhan-Uul"}},{"type":"Feature","geometry":{"type":"Polygon","coordinates":[[[111.1671,46.2316],[110.9766,46.0896],[110.9577,46.0598],[110.8682,46.0631],[110.5649,46.1041],[110.5166,46.2182],[110.39,46.3728],[110.2172,46.5109],[110.1218,46.6037],[110.027,46.624],[109.9864,46.5971],[110.0099,46.4573],[109.915,46.3019],[109.7893,46.2139],[109.6228,46.1418],[109.4962,46.1656],[109.3447,46.1682],[109.2511,46.2015],[109.169,46.2702],[109.1166,46.3741],[108.9589,46.4639],[108.9734,46.4988],[108.9707,46.691],[109.0011,46.7808],[108.9864,46.8314],[108.9179,46.8622],[108.8205,46.9804],[108.7299,47.0256],[108.6614,47.0863],[108.597,47.2176],[108.507,47.3527],[108.3856,47.5026],[108.404,47.5724],[108.3989,47.6445],[108.4848,47.7524],[108.4464,47.783],[108.4694,47.9254],[108.552,47.9223],[108.6843,47.965],[108.8746,48.0714],[108.9478,48.1972],[109.0339,48.2963],[109.0361,48.3467],[108.9517,48.5525],[108.9176,48.6693],[108.8549,48.8165],[108.7381,48.9739],[108.5215,49.1239],[108.5357,49.2261],[108.5714,49.3311],[108.9554,49.3448],[109.0581,49.3232],[109.1712,49.3529],[109.3455,49.3249],[109.4996,49.2362],[109.5591,49.2208],[109.6838,49.226],[109.9026,49.2057],[110.2258,49.1581],[110.3281,49.1991],[110.3796,49.247],[110.4762,49.2016],[110.6836,49.1709],[110.807,49.1802],[111.0787,49.2621],[111.2768,49.3104],[111.3748,49.3577],[111.5148,49.323],[111.6683,49.3798],[111.9092,49.3764],[111.9961,49.3919],[112.1493,49.3241],[112.1869,49.2229],[112.1981,49.1273],[112.2927,48.9819],[112.2371,48.8575],[112.2936,48.7498],[112.5119,48.484],[112.5376,48.4233],[112.5116,48.2463],[112.5588,48.0305],[112.6941,47.7939],[112.5309,47.7891],[112.4089,47.7636],[112.1163,47.6445],[112.0759,47.5935],[112.0515,47.4909],[112.0488,47.39],[112.0679,47.316],[111.793,47.3796],[111.6775,47.3287],[111.5337,47.2349],[111.4675,47.1367],[111.4335,46.9941],[111.3797,46.8645],[111.3935,46.7919],[111.2619,46.6878],[111.2332,46.6107],[111.2614,46.4595],[111.2478,46.3769],[111.1671,46.2316]]]},"properties":{"shapeISO":"MN-039","shapeName":"Khentii"}}]}