{"type":"FeatureCollection","features":[{"type":"Feature","geometry":{"type":"Polygon","coordinates":[[[87.36,49.215],[85.768,48.456],[85.72,47.453],[85.164,47.001],[83.18,47.33],[82.459,45.54],[79.966,44.918],[80.866,43.18],[80.26,42.35],[79.142,42.856],[76,42.988],[76,54.155],[77.801,53.404],[80.036,50.865],[80.568,51.388],[81.946,50.812],[83.383,51.069],[85.541,49.693],[86.829,49.827],[87.36,49.215]]]},"properties":{"ADM0_A3":"KAZ"}},{"type":"Feature","geometry":{"type":"MultiPolygon","coordinates":[[[[134,48.295],[132.507,47.789],[130.987,47.79],[130.582,48.73],[129.398,49.441],[127.657,49.76],[127.287,50.74],[125.946,52.793],[123.571,53.459],[121.003,53.251],[120.738,51.964],[119.279,50.583],[119.288,50.143],[117.879,49.511],[116.679,49.889],[115.486,49.805],[114.362,50.248],[112.898,49.544],[110.662,49.13],[108.475,49.283],[106.889,50.274],[105.887,50.406],[103.677,50.09],[102.256,50.511],[102.065,51.26],[98.861,52.047],[97.826,51.011],[98.232,50.422],[97.26,49.726],[94.816,50.013],[94.148,50.481],[92.235,50.802],[88.806,49.471],[87.751,49.297],[87.36,49.215],[86.829,49.827],[85.541,49.693],[83.383,51.069],[81.946,50.812],[80.568,51.388],[80.036,50.865],[77.801,53.404],[76,54.155],[76,60],[134,60],[134,48.295]]],[[[134,43.015],[132.906,42.798],[132.278,43.285],[130.78,42.22],[130.64,42.395],[131.145,42.93],[131.289,44.112],[131.025,44.968],[131.883,45.321],[133.097,45.144],[134,46.853],[134,43.015]]]]},"properties":{"ADM0_A3":"RUS"}},{"type":"Feature","geometry":{"type":"Polygon","coordinates":[[[130.64,42.395],[130.78,42.22],[129.667,41.601],[129.705,40.883],[127.533,39.757],[128.35,38.612],[126.175,37.75],[124.712,38.108],[125.387,39.388],[124.266,39.928],[126.182,41.107],[126.869,41.817],[129.597,42.425],[130.64,42.395]]]},"properties":{"ADM0_A3":"PRK"}},{"type":"Feature","geometry":{"type":"Polygon","coordinates":[[[126.175,37.75],[128.35,38.612],[129.46,36.784],[129.468,35.632],[129.091,35.082],[127.387,34.476],[126.486,34.39],[126.559,35.685],[126.117,36.725],[126.175,37.75]]]},"properties":{"ADM0_A3":"KOR"}},{"type":"Feature","geometry":{"type":"Polygon","coordinates":[[[76,42.988],[79.142,42.856],[80.26,42.35],[78.187,41.185],[76.904,41.066],[76,40.495],[76,42.988]]]},"properties":{"ADM0_A3":"KGZ"}},{"type":"Feature","geometry":{"type":"Polygon","coordinates":[[[80.26,42.35],[80.866,43.18],[79.966,44.918],[82.459,45.54],[83.18,47.33],[85.164,47.001],[85.72,47.453],[85.768,48.456],[87.36,49.215],[87.751,49.297],[88.854,48.069],[90.281,47.694],[90.971,46.888],[90.586,45.72],[90.946,45.286],[93.481,44.975],[95.307,44.241],[96.349,42.726],[99.516,42.525],[101.833,42.515],[103.312,41.907],[104.965,41.597],[106.129,42.134],[107.745,42.482],[109.244,42.519],[110.412,42.871],[111.83,43.743],[111.348,44.457],[111.873,45.102],[113.464,44.809],[115.985,45.727],[117.422,46.673],[119.773,47.048],[118.064,48.067],[117.296,47.698],[115.485,48.135],[116.679,49.889],[117.879,49.511],[119.288,50.143],[119.279,50.583],[120.738,51.964],[121.003,53.251],[123.571,53.459],[125.946,52.793],[127.287,50.74],[127.657,49.76],[129.398,49.441],[130.582,48.73],[130.987,47.79],[132.507,47.789],[134,48.295],[134,46.853],[133.097,45.144],[131.883,45.321],[131.025,44.968],[131.289,44.112],[131.145,42.93],[130.64,42.395],[129.597,42.425],[126.869,41.817],[126.182,41.107],[124.266,39.928],[122.868,39.638],[122.131,39.17],[121.377,39.75],[122.169,40.422],[121.64,40.946],[119.64,39.898],[119.023,39.252],[117.533,38.738],[118.06,38.061],[119.703,37.156],[120.823,37.87],[122.358,37.454],[122.52,36.931],[121.104,36.651],[119.665,35.61],[119.151,34.91],[120.228,34.36],[120.62,33.377],[121.636,32],[78.616,32],[79.176,32.484],[78.811,33.506],[78.912,34.322],[77.837,35.494],[76.193,35.898],[76,36.399],[76,40.495],[76.904,41.066],[78.187,41.185],[80.26,42.35]]]},"properties":{"ADM0_A3":"CHN"}}]}